{
  "norad_id": 61221,
  "name": "KINEIS-3D",
  "history": [
    {
      "epoch": "2026-03-28T19:17:03.523200Z",
      "apogee_km": 655.4118886679407,
      "perigee_km": 652.2155857798434,
      "latitude_deg": 9.357307244490943e-05,
      "longitude_deg": 63.10599242238272,
      "height_km": 656.4616659330463,
      "semi_major_axis_km": 7031.950737223892,
      "eccentricity": 0.00022727,
      "inclination_deg": 98.0345,
      "raan_deg": 178.5894,
      "arg_perigee_deg": 77.1561,
      "mean_anomaly_deg": 282.9901,
      "mean_motion_rev_day": 14.72275322
    },
    {
      "epoch": "2026-03-29T05:04:15.486240Z",
      "apogee_km": 655.3854668842841,
      "perigee_km": 652.2140634032048,
      "latitude_deg": -1.2667017852809082e-05,
      "longitude_deg": -83.69276232819978,
      "height_km": 656.4257928353329,
      "semi_major_axis_km": 7031.936765143744,
      "eccentricity": 0.0002255,
      "inclination_deg": 98.0345,
      "raan_deg": 178.9924,
      "arg_perigee_deg": 76.2378,
      "mean_anomaly_deg": 283.908,
      "mean_motion_rev_day": 14.7227971
    },
    {
      "epoch": "2026-03-30T05:32:15.204192Z",
      "apogee_km": 655.3333636940106,
      "perigee_km": 652.2305997625135,
      "latitude_deg": 5.05787158388317e-06,
      "longitude_deg": -90.6886960272521,
      "height_km": 656.3751188303179,
      "semi_major_axis_km": 7031.918981728262,
      "eccentricity": 0.00022062,
      "inclination_deg": 98.0345,
      "raan_deg": 180.0001,
      "arg_perigee_deg": 74.6671,
      "mean_anomaly_deg": 285.478,
      "mean_motion_rev_day": 14.72285295
    }
  ]
}